NORAD_CAT_ID,OBJECT_NAME,OBJECT_TYPE,EPOCH,MEAN_MOTION,ECCENTRICITY,INCLINATION,RA_OF_ASC_NODE,ARG_OF_PERICENTER,MEAN_ANOMALY,BSTAR,MEAN_MOTION_DOT,MEAN_MOTION_DDOT,TLE_LINE0,TLE_LINE1,TLE_LINE2,SEMIMAJOR_AXIS,PERIOD,APOGEE,PERIGEE,DECAYED
53174.0,STARLINK-4205,PAYLOAD,2022-12-31 09:23:29,15.08858411,0.0002133999999999,53.2191,0.866,39.167,320.9476,0.00062184,9.627e-05,0.0,0 STARLINK-4205,1 53174U 22083AU  22365.39131797  .00009627  00000-0  62184-3 0  9991,2 53174  53.2191   0.8660 0002134  39.1670 320.9476 15.08858411 26087,6917.824000000001,95.436,541.165,538.2130000000002,0.0
53174.0,STARLINK-4205,PAYLOAD,2022-12-31 17:20:25,15.0885772,0.0002247,53.2177,359.3803,39.221,320.8945,0.00056488,8.718e-05,0.0,0 STARLINK-4205,1 53174U 22083AU  22365.72251910  .00008718  00000-0  56488-3 0  9998,2 53174  53.2177 359.3803 0002247  39.2210 320.8945 15.08857720 25494,6917.826,95.436,541.246,538.137,0.0
53174.0,STARLINK-4205,PAYLOAD,2023-01-01 06:03:30,15.08843992,0.0002367,53.2204,357.0041,27.9933,332.1186,2.7682e-05,1.52e-06,0.0,0 STARLINK-4205,1 53174U 22083AU  23001.25243935  .00000152  00000-0  27682-4 0  9991,2 53174  53.2204 357.0041 0002367  27.9933 332.1186 15.08843992 26213,6917.868,95.437,541.371,538.096,0.0
53174.0,STARLINK-4205,PAYLOAD,2023-01-01 10:49:40,15.08842043,0.0002184,53.2193,356.1093,34.1433,325.9699,-0.00022667,-3.894e-05,0.0,0 STARLINK-4205,1 53174U 22083AU  23001.45115746 -.00003894  00000-0 -22667-3 0  9996,2 53174  53.2193 356.1093 0002184  34.1433 325.9699 15.08842043 25606,6917.874,95.437,541.25,538.2280000000002,0.0
53174.0,STARLINK-4205,PAYLOAD,2023-01-02 05:54:18,15.08832903,0.0002215999999999,53.2185,352.5424,34.6127,325.5009,0.00034331,5.179e-05,0.0,0 STARLINK-4205,1 53174U 22083AU  23002.24604457  .00005179  00000-0  34331-3 0  9993,2 53174  53.2185 352.5424 0002216  34.6127 325.5009 15.08832903 26365,6917.901999999999,95.438,541.3,538.234,0.0
53174.0,STARLINK-4205,PAYLOAD,2023-01-02 10:40:27,15.08837324,0.0002210999999999,53.2183,351.6498,35.5782,324.5358,0.00029642,4.432e-05,0.0,0 STARLINK-4205,1 53174U 22083AU  23002.44476458  .00004432  00000-0  29642-3 0  9993,2 53174  53.2183 351.6498 0002211  35.5782 324.5358 15.08837324 25756,6917.889,95.438,541.283,538.224,0.0
53174.0,STARLINK-4205,PAYLOAD,2023-01-03 10:31:14,15.08846296,0.0002198,53.2178,347.1887,36.9946,323.1197,0.00039471,6e-05,0.0,0 STARLINK-4205,1 53174U 22083AU  23003.43836403  .00006000  00000-0  39471-3 0  9997,2 53174  53.2178 347.1887 0002198  36.9946 323.1197 15.08846296 26545,6917.861,95.437,541.247,538.206,0.0
53174.0,STARLINK-4205,PAYLOAD,2023-01-03 23:14:19,15.08842881,0.0002228,53.2182,344.811,38.664,321.4511,0.0001943,2.806e-05,0.0,0 STARLINK-4205,1 53174U 22083AU  23003.96828493  .00002806  00000-0  19430-3 0  9998,2 53174  53.2182 344.8110 0002228  38.6640 321.4511 15.08842881 26623,6917.871999999999,95.437,541.278,538.195,0.0
53174.0,STARLINK-4205,PAYLOAD,2023-01-04 10:22:01,15.08846387,0.0002008,53.2179,342.7286,36.8063,323.3066,0.00024557,3.623e-05,0.0,0 STARLINK-4205,1 53174U 22083AU  23004.43196374  .00003623  00000-0  24557-3 0  9991,2 53174  53.2179 342.7286 0002008  36.8063 323.3066 15.08846387 26053,6917.861,95.437,541.115,538.337,0.0
53174.0,STARLINK-4205,PAYLOAD,2023-01-04 15:08:10,15.08853597,0.0001989,53.2179,341.8367,36.5563,323.5565,0.00041014,6.248e-05,0.0,0 STARLINK-4205,1 53174U 22083AU  23004.63068135  .00006248  00000-0  41014-3 0  9999,2 53174  53.2179 341.8367 0001989  36.5563 323.5565 15.08853597 26082,6917.839,95.437,541.08,538.328,0.0
53174.0,STARLINK-4205,PAYLOAD,2023-01-05 05:26:38,15.08866001,0.0002449,53.2186,339.1591,43.378,316.7405,0.00086068,0.00013446,0.0,0 STARLINK-4205,1 53174U 22083AU  23005.22683188  .00013446  00000-0  86068-3 0  9992,2 53174  53.2186 339.1591 0002449  43.3780 316.7405 15.08866001 26810,6917.801,95.436,541.36,537.972,0.0
53174.0,STARLINK-4205,PAYLOAD,2023-01-05 10:12:47,15.08865623,0.0002531,53.2176,338.2683,42.4536,317.6652,0.00033976,5.127e-05,0.0,0 STARLINK-4205,1 53174U 22083AU  23005.42554720  .00005127  00000-0  33976-3 0  9990,2 53174  53.2176 338.2683 0002531  42.4536 317.6652 15.08865623 26208,6917.802,95.436,541.418,537.9159999999998,0.0
53174.0,STARLINK-4205,PAYLOAD,2023-01-05 14:58:56,15.08864318,0.000233,53.2176,337.3761,41.5504,318.5665,0.00019311,2.788e-05,0.0,0 STARLINK-4205,1 53174U 22083AU  23005.62426637  .00002788  00000-0  19311-3 0  9994,2 53174  53.2176 337.3761 0002330  41.5504 318.5665 15.08864318 26234,6917.806,95.436,541.283,538.059,0.0
53174.0,STARLINK-4205,PAYLOAD,2023-01-06 08:28:10,15.08846691,0.0001379,53.2183,334.107,13.4448,346.658,-0.00012554,-2.286e-05,0.0,0 STARLINK-4205,1 53174U 22083AU  23006.35290435 -.00002286  00000-0 -12554-3 0  9997,2 53174  53.2183 334.1070 0001379  13.4448 346.6580 15.08846691 26981,6917.86,95.437,540.679,538.771,0.0
53174.0,STARLINK-4205,PAYLOAD,2023-01-06 21:11:16,15.08829766,0.0001839,53.2175,331.7265,31.7371,328.3732,-0.00024155,-4.129e-05,0.0,0 STARLINK-4205,1 53174U 22083AU  23006.88283515 -.00004129  00000-0 -24155-3 0  9994,2 53174  53.2175 331.7265 0001839  31.7371 328.3732 15.08829766 26429,6917.911999999998,95.438,541.049,538.504,0.0
53174.0,STARLINK-4205,PAYLOAD,2023-01-07 03:32:49,15.08830702,0.0001953,53.2177,330.538,35.0168,325.0952,0.00022311,3.264e-05,0.0,0 STARLINK-4205,1 53174U 22083AU  23007.14779843  .00003264  00000-0  22311-3 0  9997,2 53174  53.2177 330.5380 0001953  35.0168 325.0952 15.08830702 27100,6917.9090000000015,95.438,541.125,538.423,0.0
53174.0,STARLINK-4205,PAYLOAD,2023-01-07 14:40:32,15.08833327,0.0002259,53.2163,328.457,34.394,325.7198,0.00065367,0.00010129,0.0,0 STARLINK-4205,1 53174U 22083AU  23007.61148475  .00010129  00000-0  65367-3 0  9996,2 53174  53.2163 328.4570 0002259  34.3940 325.7198 15.08833327 26533,6917.901,95.438,541.3290000000002,538.203,0.0
53174.0,STARLINK-4205,PAYLOAD,2023-01-08 06:34:23,15.08835917,0.00024,53.2161,325.4838,37.9659,322.1502,0.0003675,5.565e-05,0.0,0 STARLINK-4205,1 53174U 22083AU  23008.27388865  .00005565  00000-0  36750-3 0  9990,2 53174  53.2161 325.4838 0002400  37.9659 322.1502 15.08835917 27278,6917.893,95.438,541.418,538.0980000000002,0.0
53174.0,STARLINK-4205,PAYLOAD,2023-01-08 14:31:19,15.08840593,0.0002362,53.2176,323.9964,37.954,322.1619,0.00038926,5.912e-05,0.0,0 STARLINK-4205,1 53174U 22083AU  23008.60508849  .00005912  00000-0  38926-3 0  9996,2 53174  53.2176 323.9964 0002362  37.9540 322.1619 15.08840593 26682,6917.879,95.438,541.378,538.11,0.0
53174.0,STARLINK-4205,PAYLOAD,2023-01-09 06:25:10,15.08845568,0.0002346,53.2183,321.0222,41.4166,318.7003,0.00035043,5.294e-05,0.0,0 STARLINK-4205,1 53174U 22083AU  23009.26748797  .00005294  00000-0  35043-3 0  9997,2 53174  53.2183 321.0222 0002346  41.4166 318.7003 15.08845568 26788,6917.863,95.437,541.351,538.105,0.0
53174.0,STARLINK-4205,PAYLOAD,2023-01-10 04:40:34,15.08846518,0.0002164,53.2186,316.8586,40.1252,319.9899,0.00018194,2.609e-05,0.0,0 STARLINK-4205,1 53174U 22083AU  23010.19484550  .00002609  00000-0  18194-3 0  9990,2 53174  53.2186 316.8586 0002164  40.1252 319.9899 15.08846518 27565,6917.86,95.437,541.222,538.2280000000002,0.0
53174.0,STARLINK-4205,PAYLOAD,2023-01-10 06:15:57,15.0884513,0.0002172,53.2186,316.5615,39.8793,320.2359,0.00014296,1.988e-05,0.0,0 STARLINK-4205,1 53174U 22083AU  23010.26108569  .00001988  00000-0  14296-3 0  9999,2 53174  53.2186 316.5615 0002172  39.8793 320.2359 15.08845130 26934,6917.865,95.437,541.232,538.227,0.0
53174.0,STARLINK-4205,PAYLOAD,2023-01-10 20:34:25,15.0884858,0.0002144,53.2181,313.8857,39.6572,320.4577,0.00017667,2.525e-05,0.0,0 STARLINK-4205,1 53174U 22083AU  23010.85724254  .00002525  00000-0  17667-3 0  9992,2 53174  53.2181 313.8857 0002144  39.6572 320.4577 15.08848580 27026,6917.854,95.437,541.202,538.236,0.0
53174.0,STARLINK-4205,PAYLOAD,2023-01-11 02:55:57,15.08863286,0.0002072,53.2185,312.6964,42.9002,317.2152,0.00039685,6.037e-05,0.0,0 STARLINK-4205,1 53174U 22083AU  23011.12219303  .00006037  00000-0  39685-3 0  9993,2 53174  53.2185 312.6964 0002072  42.9002 317.2152 15.08863286 27709,6917.809,95.436,541.1080000000002,538.241,0.0
53174.0,STARLINK-4205,PAYLOAD,2023-01-11 12:28:16,15.088452800000002,0.0002136,53.2178,310.9127,44.2021,315.9141,9.2628e-05,1.186e-05,0.0,0 STARLINK-4205,1 53174U 22083AU  23011.51963999  .00001186  00000-0  92628-4 0  9990,2 53174  53.2178 310.9127 0002136  44.2021 315.9141 15.08845280 27123,6917.864000000001,95.437,541.207,538.252,0.0
53174.0,STARLINK-4205,PAYLOAD,2023-01-11 18:49:50,15.08838226,0.0003068,53.2178,309.7235,58.2655,301.8635,2.3099e-06,-2.52e-06,0.0,0 STARLINK-4205,1 53174U 22083AU  23011.78460762 -.00000252  00000-0  23099-5 0  9990,2 53174  53.2178 309.7235 0003068  58.2655 301.8635 15.08838226 27801,6917.886,95.438,541.873,537.628,0.0
53174.0,STARLINK-4205,PAYLOAD,2023-01-11 20:25:13,15.08819227,0.0001978,53.2181,309.4262,53.9947,306.1228,-0.00042805,-7.09e-05,0.0,0 STARLINK-4205,1 53174U 22083AU  23011.85085056 -.00007090  00000-0 -42805-3 0  9999,2 53174  53.2181 309.4262 0001978  53.9947 306.1228 15.08819227 27172,6917.944,95.439,541.177,538.441,0.0
53174.0,STARLINK-4205,PAYLOAD,2023-01-12 02:46:46,15.08824442,0.000203,53.2178,308.2365,44.3175,315.798,-0.00024029,-4.109e-05,0.0,0 STARLINK-4205,1 53174U 22083AU  23012.11581213 -.00004109  00000-0 -24029-3 0  9991,2 53174  53.2178 308.2365 0002030  44.3175 315.7980 15.08824442 27857,6917.928000000001,95.439,541.197,538.389,0.0
53174.0,STARLINK-4205,PAYLOAD,2023-01-12 18:40:38,15.08822094,0.0001994,53.2168,305.2625,50.3407,309.7761,-0.00012613,-2.294e-05,0.0,0 STARLINK-4205,1 53174U 22083AU  23012.77822028 -.00002294  00000-0 -12613-3 0  9994,2 53174  53.2168 305.2625 0001994  50.3407 309.7761 15.08822094 27317,6917.935,95.439,541.18,538.4209999999998,0.0
